[{"OBJECT_NAME":"STARLINK-37208","OBJECT_ID":"2026-068R","EPOCH":"2026-04-15T13:50:29.675904","MEAN_MOTION":15.8096333,"ECCENTRICITY":9.319e-5,"INCLINATION":53.1585,"RA_OF_ASC_NODE":324.3362,"ARG_OF_PERICENTER":132.712,"MEAN_ANOMALY":227.3982,"EPHEMERIS_TYPE":0,"CLASSIFICATION_TYPE":"U","NORAD_CAT_ID":68523,"ELEMENT_SET_NO":999,"REV_AT_EPOCH":250,"BSTAR":0.0013681652,"MEAN_MOTION_DOT":0.00279416,"MEAN_MOTION_DDOT":0},{"OBJECT_NAME":"STARLINK-36302","OBJECT_ID":"2026-068S","EPOCH":"2026-04-15T15:20:27.023424","MEAN_MOTION":15.809509,"ECCENTRICITY":6.699e-5,"INCLINATION":53.1587,"RA_OF_ASC_NODE":324.0142,"ARG_OF_PERICENTER":111.5377,"MEAN_ANOMALY":248.5717,"EPHEMERIS_TYPE":0,"CLASSIFICATION_TYPE":"U","NORAD_CAT_ID":68524,"ELEMENT_SET_NO":999,"REV_AT_EPOCH":251,"BSTAR":0.0011461652,"MEAN_MOTION_DOT":0.0023255,"MEAN_MOTION_DDOT":0},{"OBJECT_NAME":"STARLINK-36311","OBJECT_ID":"2026-068T","EPOCH":"2026-04-15T13:47:13.668000","MEAN_MOTION":15.80916738,"ECCENTRICITY":7.144e-5,"INCLINATION":53.1586,"RA_OF_ASC_NODE":324.3207,"ARG_OF_PERICENTER":184.6515,"MEAN_ANOMALY":175.4501,"EPHEMERIS_TYPE":0,"CLASSIFICATION_TYPE":"U","NORAD_CAT_ID":68525,"ELEMENT_SET_NO":999,"REV_AT_EPOCH":250,"BSTAR":0.00094420127,"MEAN_MOTION_DOT":0.001902,"MEAN_MOTION_DDOT":0},{"OBJECT_NAME":"STARLINK-37178","OBJECT_ID":"2026-068U","EPOCH":"2026-04-15T13:48:20.136384","MEAN_MOTION":15.80990545,"ECCENTRICITY":7.433e-5,"INCLINATION":53.1585,"RA_OF_ASC_NODE":324.3262,"ARG_OF_PERICENTER":116.4373,"MEAN_ANOMALY":243.6726,"EPHEMERIS_TYPE":0,"CLASSIFICATION_TYPE":"U","NORAD_CAT_ID":68526,"ELEMENT_SET_NO":999,"REV_AT_EPOCH":250,"BSTAR":0.0017579813,"MEAN_MOTION_DOT":0.00363243,"MEAN_MOTION_DDOT":0},{"OBJECT_NAME":"STARLINK-37248","OBJECT_ID":"2026-068V","EPOCH":"2026-04-15T13:46:10.414560","MEAN_MOTION":15.80938285,"ECCENTRICITY":3.015e-5,"INCLINATION":53.1582,"RA_OF_ASC_NODE":324.3156,"ARG_OF_PERICENTER":183.2411,"MEAN_ANOMALY":176.861,"EPHEMERIS_TYPE":0,"CLASSIFICATION_TYPE":"U","NORAD_CAT_ID":68527,"ELEMENT_SET_NO":999,"REV_AT_EPOCH":250,"BSTAR":0.0011475857,"MEAN_MOTION_DOT":0.00232713,"MEAN_MOTION_DDOT":0},{"OBJECT_NAME":"STARLINK-37241","OBJECT_ID":"2026-068W","EPOCH":"2026-04-15T13:44:00.923424","MEAN_MOTION":15.80980466,"ECCENTRICITY":0.00010148,"INCLINATION":53.1587,"RA_OF_ASC_NODE":324.3064,"ARG_OF_PERICENTER":116.9596,"MEAN_ANOMALY":243.153,"EPHEMERIS_TYPE":0,"CLASSIFICATION_TYPE":"U","NORAD_CAT_ID":68528,"ELEMENT_SET_NO":999,"REV_AT_EPOCH":250,"BSTAR":0.0016089762,"MEAN_MOTION_DOT":0.00330976,"MEAN_MOTION_DDOT":0},{"OBJECT_NAME":"STARLINK-37244","OBJECT_ID":"2026-068X","EPOCH":"2026-04-15T07:40:57.122976","MEAN_MOTION":15.80950954,"ECCENTRICITY":0.000127,"INCLINATION":53.1589,"RA_OF_ASC_NODE":325.5787,"ARG_OF_PERICENTER":74.4777,"MEAN_ANOMALY":285.6386,"EPHEMERIS_TYPE":0,"CLASSIFICATION_TYPE":"U","NORAD_CAT_ID":68529,"ELEMENT_SET_NO":999,"REV_AT_EPOCH":246,"BSTAR":0.0011996552,"MEAN_MOTION_DOT":0.00243752,"MEAN_MOTION_DDOT":0},{"OBJECT_NAME":"STARLINK-36285","OBJECT_ID":"2026-068Y","EPOCH":"2026-04-15T13:42:55.947168","MEAN_MOTION":15.80950243,"ECCENTRICITY":7.838e-5,"INCLINATION":53.1586,"RA_OF_ASC_NODE":324.3011,"ARG_OF_PERICENTER":114.1865,"MEAN_ANOMALY":245.924,"EPHEMERIS_TYPE":0,"CLASSIFICATION_TYPE":"U","NORAD_CAT_ID":68530,"ELEMENT_SET_NO":999,"REV_AT_EPOCH":250,"BSTAR":0.0012939243,"MEAN_MOTION_DOT":0.00263568,"MEAN_MOTION_DDOT":0},{"OBJECT_NAME":"STARLINK-36294","OBJECT_ID":"2026-068Z","EPOCH":"2026-04-15T13:41:51.220608","MEAN_MOTION":15.81000073,"ECCENTRICITY":6.444e-5,"INCLINATION":53.1588,"RA_OF_ASC_NODE":324.2956,"ARG_OF_PERICENTER":105.6923,"MEAN_ANOMALY":254.4171,"EPHEMERIS_TYPE":0,"CLASSIFICATION_TYPE":"U","NORAD_CAT_ID":68531,"ELEMENT_SET_NO":999,"REV_AT_EPOCH":250,"BSTAR":0.001732178,"MEAN_MOTION_DOT":0.00357833,"MEAN_MOTION_DDOT":0},{"OBJECT_NAME":"STARLINK-36249","OBJECT_ID":"2026-068AA","EPOCH":"2026-04-15T13:39:41.733792","MEAN_MOTION":15.81025575,"ECCENTRICITY":0.00010915,"INCLINATION":53.1588,"RA_OF_ASC_NODE":324.2847,"ARG_OF_PERICENTER":117.1768,"MEAN_ANOMALY":242.9367,"EPHEMERIS_TYPE":0,"CLASSIFICATION_TYPE":"U","NORAD_CAT_ID":68532,"ELEMENT_SET_NO":999,"REV_AT_EPOCH":250,"BSTAR":0.0017943938,"MEAN_MOTION_DOT":0.00371741,"MEAN_MOTION_DDOT":0},{"OBJECT_NAME":"STARLINK-36252","OBJECT_ID":"2026-068AB","EPOCH":"2026-04-15T13:40:46.455168","MEAN_MOTION":15.80980704,"ECCENTRICITY":0.00010712,"INCLINATION":53.1587,"RA_OF_ASC_NODE":324.2901,"ARG_OF_PERICENTER":112.3023,"MEAN_ANOMALY":247.8114,"EPHEMERIS_TYPE":0,"CLASSIFICATION_TYPE":"U","NORAD_CAT_ID":68533,"ELEMENT_SET_NO":999,"REV_AT_EPOCH":250,"BSTAR":0.0014049409,"MEAN_MOTION_DOT":0.00287444,"MEAN_MOTION_DDOT":0},{"OBJECT_NAME":"STARLINK-36299","OBJECT_ID":"2026-068AC","EPOCH":"2026-04-15T13:38:36.697920","MEAN_MOTION":15.80946147,"ECCENTRICITY":9.373e-5,"INCLINATION":53.1588,"RA_OF_ASC_NODE":324.2794,"ARG_OF_PERICENTER":130.3147,"MEAN_ANOMALY":229.7958,"EPHEMERIS_TYPE":0,"CLASSIFICATION_TYPE":"U","NORAD_CAT_ID":68534,"ELEMENT_SET_NO":999,"REV_AT_EPOCH":250,"BSTAR":0.0012409919,"MEAN_MOTION_DOT":0.00252376,"MEAN_MOTION_DDOT":0},{"OBJECT_NAME":"STARLINK-37234","OBJECT_ID":"2026-068AD","EPOCH":"2026-04-15T13:36:27.117792","MEAN_MOTION":15.80977479,"ECCENTRICITY":0.00010415,"INCLINATION":53.159,"RA_OF_ASC_NODE":324.2693,"ARG_OF_PERICENTER":131.703,"MEAN_ANOMALY":228.4082,"EPHEMERIS_TYPE":0,"CLASSIFICATION_TYPE":"U","NORAD_CAT_ID":68535,"ELEMENT_SET_NO":999,"REV_AT_EPOCH":250,"BSTAR":0.0015043416,"MEAN_MOTION_DOT":0.00308549,"MEAN_MOTION_DDOT":0},{"OBJECT_NAME":"STARLINK-37173","OBJECT_ID":"2026-068AE","EPOCH":"2026-04-15T13:37:31.840032","MEAN_MOTION":15.80944861,"ECCENTRICITY":2.728e-5,"INCLINATION":53.1588,"RA_OF_ASC_NODE":324.275,"ARG_OF_PERICENTER":112.8313,"MEAN_ANOMALY":247.2738,"EPHEMERIS_TYPE":0,"CLASSIFICATION_TYPE":"U","NORAD_CAT_ID":68536,"ELEMENT_SET_NO":999,"REV_AT_EPOCH":250,"BSTAR":0.0013175562,"MEAN_MOTION_DOT":0.00268492,"MEAN_MOTION_DDOT":0},{"OBJECT_NAME":"SL-4 R/B","OBJECT_ID":"2026-061S","EPOCH":"2026-04-15T14:16:49.304640","MEAN_MOTION":15.96926411,"ECCENTRICITY":0.00173261,"INCLINATION":82.3033,"RA_OF_ASC_NODE":82.6946,"ARG_OF_PERICENTER":341.6657,"MEAN_ANOMALY":18.3992,"EPHEMERIS_TYPE":0,"CLASSIFICATION_TYPE":"U","NORAD_CAT_ID":68537,"ELEMENT_SET_NO":999,"REV_AT_EPOCH":364,"BSTAR":0.00043830259,"MEAN_MOTION_DOT":0.00190528,"MEAN_MOTION_DDOT":1.2905982e-5},{"OBJECT_NAME":"SWC-1","OBJECT_ID":"2026-069C","EPOCH":"2026-04-17T12:14:33.921312","MEAN_MOTION":1.01840683,"ECCENTRICITY":0.8357664,"INCLINATION":28.3533,"RA_OF_ASC_NODE":357.7706,"ARG_OF_PERICENTER":80.9928,"MEAN_ANOMALY":279.0715,"EPHEMERIS_TYPE":0,"CLASSIFICATION_TYPE":"U","NORAD_CAT_ID":68540,"ELEMENT_SET_NO":999,"REV_AT_EPOCH":16,"BSTAR":0,"MEAN_MOTION_DOT":-3.51e-6,"MEAN_MOTION_DDOT":0}]
