STARLINK-37208
1 68523U 26068R   26105.57673236  .00279416  00000+0  13682-2 0  9999
2 68523  53.1585 324.3362 0000931 132.7120 227.3982 15.80963330  2503
STARLINK-36302
1 68524U 26068S   26105.63920166  .00232550  00000+0  11462-2 0  9996
2 68524  53.1587 324.0142 0000669 111.5377 248.5717 15.80950900  2517
STARLINK-36311
1 68525U 26068T   26105.57446375  .00190200  00000+0  94420-3 0  9996
2 68525  53.1586 324.3207 0000714 184.6515 175.4501 15.80916738  2507
STARLINK-37178
1 68526U 26068U   26105.57523306  .00363243  00000+0  17580-2 0  9997
2 68526  53.1585 324.3262 0000743 116.4373 243.6726 15.80990545  2500
STARLINK-37248
1 68527U 26068V   26105.57373165  .00232713  00000+0  11476-2 0  9999
2 68527  53.1582 324.3156 0000301 183.2411 176.8610 15.80938285  2507
STARLINK-37241
1 68528U 26068W   26105.57223291  .00330976  00000+0  16090-2 0  9991
2 68528  53.1587 324.3064 0001014 116.9596 243.1530 15.80980466  2507
STARLINK-37244
1 68529U 26068X   26105.32010559  .00243752  00000+0  11997-2 0  9992
2 68529  53.1589 325.5787 0001270  74.4777 285.6386 15.80950954  2462
STARLINK-36285
1 68530U 26068Y   26105.57148087  .00263568  00000+0  12939-2 0  9993
2 68530  53.1586 324.3011 0000783 114.1865 245.9240 15.80950243  2500
STARLINK-36294
1 68531U 26068Z   26105.57073172  .00357833  00000+0  17322-2 0  9996
2 68531  53.1588 324.2956 0000644 105.6923 254.4171 15.81000073  2502
STARLINK-36249
1 68532U 26068AA  26105.56923303  .00371741  00000+0  17944-2 0  9990
2 68532  53.1588 324.2847 0001091 117.1768 242.9367 15.81025575  2507
STARLINK-36252
1 68533U 26068AB  26105.56998212  .00287444  00000+0  14049-2 0  9991
2 68533  53.1587 324.2901 0001071 112.3023 247.8114 15.80980704  2504
STARLINK-36299
1 68534U 26068AC  26105.56848030  .00252376  00000+0  12410-2 0  9990
2 68534  53.1588 324.2794 0000937 130.3147 229.7958 15.80946147  2501
STARLINK-37234
1 68535U 26068AD  26105.56698053  .00308549  00000+0  15043-2 0  9998
2 68535  53.1590 324.2693 0001041 131.7030 228.4082 15.80977479  2502
STARLINK-37173
1 68536U 26068AE  26105.56772963  .00268492  00000+0  13176-2 0  9999
2 68536  53.1588 324.2750 0000272 112.8313 247.2738 15.80944861  2509
SWC-1
1 68540U 26069C   26107.51011483 -.00000351  00000+0  00000+0 0  9993
2 68540  28.3533 357.7706 8357664  80.9928 279.0715  1.01840683   168
SL-4 R/B
1 68537U 26061S   26105.59501510  .00190528  12906-4  43830-3 0  9992
2 68537  82.3033  82.6946 0017326 341.6657  18.3992 15.96926411  3645
